{
    "links": {
        "self": "http://www.neowsapp.com/rest/v1/neo/3391852?api_key=iIulBulltgU6a56xZRHN4H3l9WmuAYTsLGpBGhQ2"
    },
    "id": "3391852",
    "neo_reference_id": "3391852",
    "name": "(2007 UQ51)",
    "designation": "2007 UQ51",
    "nasa_jpl_url": "http://ssd.jpl.nasa.gov/sbdb.cgi?sstr=3391852",
    "absolute_magnitude_h": 20.2,
    "estimated_diameter": {
        "kilometers": {
            "estimated_diameter_min": 0.2424124811,
            "estimated_diameter_max": 0.5420507863
        },
        "meters": {
            "estimated_diameter_min": 242.4124811008,
            "estimated_diameter_max": 542.0507863358
        },
        "miles": {
            "estimated_diameter_min": 0.1506280858,
            "estimated_diameter_max": 0.3368146392
        },
        "feet": {
            "estimated_diameter_min": 795.3165644948,
            "estimated_diameter_max": 1778.3819018419
        }
    },
    "is_potentially_hazardous_asteroid": false,
    "close_approach_data": [
        {
            "close_approach_date": "2007-10-21",
            "close_approach_date_full": "2007-Oct-21 05:03",
            "epoch_date_close_approach": 1192942980000,
            "relative_velocity": {
                "kilometers_per_second": "14.1114975669",
                "kilometers_per_hour": "50801.3912408501",
                "miles_per_hour": "31566.0089074049"
            },
            "miss_distance": {
                "astronomical": "0.2671074047",
                "lunar": "103.9047804283",
                "kilometers": "39958698.804347989",
                "miles": "24829184.0924566882"
            },
            "orbiting_body": "Earth"
        }
    ],
    "orbital_data": {
        "orbit_id": "16",
        "orbit_determination_date": "2017-04-06 09:18:54",
        "first_observation_date": "2007-10-31",
        "last_observation_date": "2007-12-30",
        "data_arc_in_days": 60,
        "observations_used": 39,
        "orbit_uncertainty": "6",
        "minimum_orbit_intersection": ".051366",
        "jupiter_tisserand_invariant": "3.528",
        "epoch_osculation": "2459000.5",
        "eccentricity": ".5131693077333204",
        "semi_major_axis": "2.142143027771428",
        "inclination": "3.45298974861913",
        "ascending_node_longitude": "206.1084838249947",
        "orbital_period": "1145.173062939559",
        "perihelion_distance": "1.042860973144205",
        "perihelion_argument": "143.1497047190044",
        "aphelion_distance": "3.24142508239865",
        "perihelion_time": "2458956.921232153160",
        "mean_anomaly": "13.69955069026155",
        "mean_motion": ".314362965433287",
        "equinox": "J2000",
        "orbit_class": {
            "orbit_class_type": "AMO",
            "orbit_class_description": "Near-Earth asteroid orbits similar to that of 1221 Amor",
            "orbit_class_range": "1.017 AU < q (perihelion) < 1.3 AU"
        }
    },
    "is_sentry_object": false
}